{"type":"FeatureCollection","name":"Church_Street_UNC_Chapel_Hill_NAD83","crs":{"type":"name","properties":{"name":"urn:ogc:def:crs:EPSG::4269"}},"features":[{"type":"Feature","properties":{"name":"Church Street","city":"Chapel Hill","state":"North Carolina","zip":"27516","datum":"NAD83","epsg":4269},"geometry":{"type":"LineString","coordinates":[[-79.05895,35.91278],[-79.0592,35.91346],[-79.05945,35.9142],[-79.0597,35.91495],[-79.05993,35.91555],[-79.06017,35.91615],[-79.06052,35.91671],[-79.06072,35.91745],[-79.06084,35.91815],[-79.06092,35.9189],[-79.061,35.91955]]}}]}